[{"OBJECT_NAME":"STARLINK-32350","OBJECT_ID":"2024-164P","EPOCH":"2026-03-09T08:03:34.368480","MEAN_MOTION":15.3019429,"ECCENTRICITY":0.0001169,"INCLINATION":53.1602,"RA_OF_ASC_NODE":92.7426,"ARG_OF_PERICENTER":79.3281,"MEAN_ANOMALY":280.7851,"EPHEMERIS_TYPE":0,"CLASSIFICATION_TYPE":"U","NORAD_CAT_ID":61063,"ELEMENT_SET_NO":999,"REV_AT_EPOCH":8342,"BSTAR":3.2592687e-5,"MEAN_MOTION_DOT":6.06e-6,"MEAN_MOTION_DDOT":0},{"OBJECT_NAME":"CZ-6A DEB","OBJECT_ID":"2024-140ADS","EPOCH":"2026-03-09T14:05:09.302208","MEAN_MOTION":15.17885306,"ECCENTRICITY":0.0073653,"INCLINATION":89.0442,"RA_OF_ASC_NODE":281.8925,"ARG_OF_PERICENTER":121.24,"MEAN_ANOMALY":239.6089,"EPHEMERIS_TYPE":0,"CLASSIFICATION_TYPE":"U","NORAD_CAT_ID":64628,"ELEMENT_SET_NO":999,"REV_AT_EPOCH":8034,"BSTAR":0.0029018,"MEAN_MOTION_DOT":0.00063537,"MEAN_MOTION_DDOT":0}]
